[{"OBJECT_NAME":"TIANQI-20","OBJECT_ID":"2025-105D","EPOCH":"2026-03-09T21:45:43.775424","MEAN_MOTION":13.99100887,"ECCENTRICITY":0.00114132,"INCLINATION":44.9846,"RA_OF_ASC_NODE":103.7214,"ARG_OF_PERICENTER":272.0417,"MEAN_ANOMALY":87.9108,"EPHEMERIS_TYPE":0,"CLASSIFICATION_TYPE":"U","NORAD_CAT_ID":64061,"ELEMENT_SET_NO":999,"REV_AT_EPOCH":4130,"BSTAR":0.00015588372,"MEAN_MOTION_DOT":9.9e-7,"MEAN_MOTION_DDOT":0},{"OBJECT_NAME":"COSMOS 1275 DEB","OBJECT_ID":"1981-053DL","EPOCH":"2026-03-09T19:50:25.007712","MEAN_MOTION":14.1140165,"ECCENTRICITY":0.00474098,"INCLINATION":82.9594,"RA_OF_ASC_NODE":194.8428,"ARG_OF_PERICENTER":56.6174,"MEAN_ANOMALY":59.1464,"EPHEMERIS_TYPE":0,"CLASSIFICATION_TYPE":"U","NORAD_CAT_ID":12767,"ELEMENT_SET_NO":999,"REV_AT_EPOCH":27738,"BSTAR":0.0007402574,"MEAN_MOTION_DOT":1.37e-5,"MEAN_MOTION_DDOT":0}]
